COSMOS 2433 (720)       
1 32275U 07052A   25337.70422363 -.00000041  00000+0  00000+0 0  9994
2 32275  65.6881 322.5094 0005534 252.6226 107.3209  2.13103907140892
COSMOS 2432 (719)       
1 32276U 07052B   25338.48114806 -.00000045  00000+0  00000+0 0  9995
2 32276  65.7036 322.6073 0011254 311.6961 228.7695  2.13103045140937
COSMOS 2434 (721)       
1 32393U 07065A   25335.27127922  .00000102  00000+0  00000+0 0  9999
2 32393  64.3147 198.5905 0004337  70.7489 113.3938  2.13101181139555
COSMOS 2436 (723)       
1 32395U 07065C   25335.04404903  .00000100  00000+0  00000+0 0  9991
2 32395  64.3233 198.6683 0017711   8.6583 134.2889  2.13099978139504
COSMOS 2456 (730)       
1 36111U 09070A   25336.18844698 -.00000022  00000+0  00000+0 0  9998
2 36111  64.8943  77.6987 0002798 298.3251  26.4531  2.13103415124220
COSMOS 2457 (733)       
1 36112U 09070B   25337.00433556 -.00000025  00000+0  00000+0 0  9991
2 36112  64.8799  77.5186 0004910 156.2376 203.7006  2.13100787124246
COSMOS 2460 (732)       
1 36402U 10007C   25335.24247485 -.00000026  00000+0  00000+0 0  9994
2 36402  65.5360 321.1620 0002800 269.9918 177.6167  2.13106053122518
COSMOS 2476 (744)       
1 37867U 11064A   25336.83167030 -.00000022  00000+0  00000+0 0  9993
2 37867  65.1573  79.5068 0023960 233.4935 133.1658  2.13101261109581
COSMOS 2477 (745)       
1 37868U 11064B   25335.23245073 -.00000012  00000+0  00000+0 0  9990
2 37868  65.1625  79.6383 0020984 233.8301 166.8442  2.13102690109542
COSMOS 2475 (743)       
1 37869U 11064C   25336.13216111 -.00000018  00000+0  00000+0 0  9998
2 37869  65.1701  79.6277 0026048 248.2415  78.6584  2.13101359109563
COSMOS 2485 (747)       
1 39155U 13019A   25336.29052668 -.00000018  00000+0  00000+0 0  9992
2 39155  65.3079  80.2187 0024568 229.0905 130.6936  2.13102877 98087
COSMOS 2492 (754)       
1 39620U 14012A   25336.71840745 -.00000036  00000+0  00000+0 0  9991
2 39620  65.4134 320.6107 0014164 311.0276  48.8557  2.13103072 91051
COSMOS 2500 (755)       
1 40001U 14032A   25338.29848964 -.00000045  00000+0  00000+0 0  9994
2 40001  65.3482 320.3199 0008267 219.1220 140.8171  2.13106037 89307
COSMOS 2501 (702K)      
1 40315U 14075A   25338.08890293  .00000103  00000+0  00000+0 0  9992
2 40315  63.6138 197.1248 0020149 204.6361 155.3630  2.13101298 85690
COSMOS 2514 (751)       
1 41330U 16008A   25337.60358650 -.00000042  00000+0  00000+0 0  9994
2 41330  65.1390 319.7170 0012449 219.8924 140.0170  2.13102460 76454
COSMOS 2522 (752)       
1 42939U 17055A   25336.97276947  .00000107  00000+0  00000+0 0  9991
2 42939  64.0758 198.5618 0006532 226.0683 133.9743  2.13101850 63796
COSMOS 2527 (756)       
1 43508U 18053A   25337.40271873 -.00000022  00000+0  00000+0 0  9992
2 43508  65.4675  80.4438 0008647 224.1252 135.8021  2.13102029 58109
COSMOS 2529 (757)       
1 43687U 18086A   25337.03097765  .00000106  00000+0  00000+0 0  9993
2 43687  64.2917 199.2166 0007293 254.4618 105.5545  2.13101888 55102
COSMOS 2534 (758)       
1 44299U 19030A   25338.45242905  .00000098  00000+0  00000+0 0  9998
2 44299  64.3652 199.1723 0009060 283.5363 221.3863  2.13101960 50770
COSMOS 2544 (759)       
1 44850U 19088A   25337.81652830 -.00000023  00000+0  00000+0 0  9994
2 44850  65.4552  80.2570 0013715 248.9953 110.8552  2.13101769 46551
COSMOS 2545 (760)       
1 45358U 20018A   25335.19681758 -.00000028  00000+0  00000+0 0  9998
2 45358  64.4762 319.3749 0011919 248.3380 111.5456  2.13102323 44447
COSMOS 2547 (705K)      
1 46805U 20075A   25338.20040019  .00000101  00000+0  00000+0 0  9994
2 46805  64.5958 198.9817 0006264 229.2044 130.8379  2.13099889 39750
COSMOS 2557 (706K)      
1 52984U 22075A   25338.36569437 -.00000047  00000+0  00000+0 0  9998
2 52984  64.4144 321.3461 0013726 276.6628  83.1807  2.13101723 26565
COSMOS 2559 (707K)      
1 54031U 22130A   25337.71558905 -.00000044  00000+0  00000+0 0  9998
2 54031  64.3873 321.4588 0012026 192.7508 167.2215  2.13101235 24525
COSMOS 2564 (761)       
1 54377U 22161A   25337.55987036  .00000105  00000+0  00000+0 0  9995
2 54377  64.7377 199.2040 0008705 206.2350 153.8180  2.13101952 23460
COSMOS 2569 (703K)      
1 57517U 23114A   25335.69623229 -.00000016  00000+0  00000+0 0  9999
2 57517  65.1883  79.2867 0010109 287.0179  72.8703  2.13103822 18055
COSMOS 2584 (704K)      
1 63130U 25042A   25330.42095954  .00000018  00000+0  00000+0 0  9994
2 63130  64.9668  79.7019 0007521 212.3772 147.5850  2.13103062  5728
COSMOS 2596 (708K)      
1 65590U 25206B   25335.05332986 -.00000026  00000+0  00000+0 0  9991
2 65590  64.7507 321.8815 0014075 304.7151 127.6712  2.13100271  1680
